[
    {
        "Altitude(m)": 565044.49378554,
        "Argument of Periapsis(deg)": 0.026491964442854003,
        "Eccentricity": 0.0,
        "Inclination(deg)": 53.0,
        "Latitude(deg)": -36.388761725704136,
        "Longitude(deg)": -34.65886273305699,
        "Mean Anomaly(deg)": -132.36082852968966,
        "RAAN(deg)": 214.96057347411204,
        "Satellite Name": "Starlink Shell 1 957",
        "Satellite Number": 957,
        "Semi-Major Axis(m)": 6931778.249405717,
        "Time(s)": 760
    },
    {
        "Altitude(m)": 565214.499793393,
        "Argument of Periapsis(deg)": 0.02684054292236524,
        "Eccentricity": 0.0,
        "Inclination(deg)": 53.0,
        "Latitude(deg)": -36.80501426640561,
        "Longitude(deg)": -34.11862428494527,
        "Mean Anomaly(deg)": -131.73399732613296,
        "RAAN(deg)": 214.9600547040346,
        "Satellite Name": "Starlink Shell 1 957",
        "Satellite Number": 957,
        "Semi-Major Axis(m)": 6931778.249405717,
        "Time(s)": 770
    },
    {
        "Altitude(m)": 565383.6344446354,
        "Argument of Periapsis(deg)": 0.027189121401876473,
        "Eccentricity": 0.0,
        "Inclination(deg)": 53.0,
        "Latitude(deg)": -37.21835307129204,
        "Longitude(deg)": -33.57210012930266,
        "Mean Anomaly(deg)": -131.10716612257622,
        "RAAN(deg)": 214.95953593395714,
        "Satellite Name": "Starlink Shell 1 957",
        "Satellite Number": 957,
        "Semi-Major Axis(m)": 6931778.249405717,
        "Time(s)": 780
    },
    {
        "Altitude(m)": 565551.8324725193,
        "Argument of Periapsis(deg)": 0.02753769988138771,
        "Eccentricity": 0.0,
        "Inclination(deg)": 53.0,
        "Latitude(deg)": -37.62870390373479,
        "Longitude(deg)": -33.01917091726927,
        "Mean Anomaly(deg)": -130.48033491901955,
        "RAAN(deg)": 214.95901716387965,
        "Satellite Name": "Starlink Shell 1 957",
        "Satellite Number": 957,
        "Semi-Major Axis(m)": 6931778.249405717,
        "Time(s)": 790
    },
    {
        "Altitude(m)": 565719.0288824154,
        "Argument of Periapsis(deg)": 0.02788627836089895,
        "Eccentricity": 0.0,
        "Inclination(deg)": 53.0,
        "Latitude(deg)": -38.03599085872158,
        "Longitude(deg)": -32.45971763758445,
        "Mean Anomaly(deg)": -129.85350371546278,
        "RAAN(deg)": 214.9584983938022,
        "Satellite Name": "Starlink Shell 1 957",
        "Satellite Number": 957,
        "Semi-Major Axis(m)": 6931778.249405717,
        "Time(s)": 800
    },
    {
        "Altitude(m)": 565885.1589807648,
        "Argument of Periapsis(deg)": 0.02823485684041019,
        "Eccentricity": 0.0,
        "Inclination(deg)": 53.0,
        "Latitude(deg)": -38.440136336899926,
        "Longitude(deg)": -31.893621257862318,
        "Mean Anomaly(deg)": -129.22667251190606,
        "RAAN(deg)": 214.95797962372473,
        "Satellite Name": "Starlink Shell 1 957",
        "Satellite Number": 957,
        "Semi-Major Axis(m)": 6931778.249405717,
        "Time(s)": 810
    },
    {
        "Altitude(m)": 566050.1584038344,
        "Argument of Periapsis(deg)": 0.028583435319921423,
        "Eccentricity": 0.0,
        "Inclination(deg)": 53.0,
        "Latitude(deg)": -38.841061020117905,
        "Longitude(deg)": -31.32076237826068,
        "Mean Anomaly(deg)": -128.59984130834937,
        "RAAN(deg)": 214.95746085364723,
        "Satellite Name": "Starlink Shell 1 957",
        "Satellite Number": 957,
        "Semi-Major Axis(m)": 6931778.249405717,
        "Time(s)": 820
    },
    {
        "Altitude(m)": 566213.9631463665,
        "Argument of Periapsis(deg)": 0.028932013799432665,
        "Eccentricity": 0.0,
        "Inclination(deg)": 53.0,
        "Latitude(deg)": -39.23868384866953,
        "Longitude(deg)": -30.741022411019216,
        "Mean Anomaly(deg)": -127.9730101047926,
        "RAAN(deg)": 214.95694208356977,
        "Satellite Name": "Starlink Shell 1 957",
        "Satellite Number": 957,
        "Semi-Major Axis(m)": 6931778.249405717,
        "Time(s)": 830
    },
    {
        "Altitude(m)": 566376.5095899849,
        "Argument of Periapsis(deg)": 0.029280592278943897,
        "Eccentricity": 0.0,
        "Inclination(deg)": 53.0,
        "Latitude(deg)": -39.63292200046184,
        "Longitude(deg)": -30.154283260716788,
        "Mean Anomaly(deg)": -127.34617890123596,
        "RAAN(deg)": 214.95642331349228,
        "Satellite Name": "Starlink Shell 1 957",
        "Satellite Number": 957,
        "Semi-Major Axis(m)": 6931778.249405717,
        "Time(s)": 840
    },
    {
        "Altitude(m)": 566537.7345314628,
        "Argument of Periapsis(deg)": 0.029629170758455132,
        "Eccentricity": 0.0,
        "Inclination(deg)": 53.0,
        "Latitude(deg)": -40.02369087234167,
        "Longitude(deg)": -29.56042701871337,
        "Mean Anomaly(deg)": -126.7193476976792,
        "RAAN(deg)": 214.95590454341482,
        "Satellite Name": "Starlink Shell 1 957",
        "Satellite Number": 957,
        "Semi-Major Axis(m)": 6931778.249405717,
        "Time(s)": 850
    },
    {
        "Altitude(m)": 566697.5752107803,
        "Argument of Periapsis(deg)": 0.02997774923796637,
        "Eccentricity": 0.0,
        "Inclination(deg)": 53.0,
        "Latitude(deg)": -40.410904063833605,
        "Longitude(deg)": -28.959337353333666,
        "Mean Anomaly(deg)": -126.09251649412255,
        "RAAN(deg)": 214.95538577333733,
        "Satellite Name": "Starlink Shell 1 957",
        "Satellite Number": 957,
        "Semi-Major Axis(m)": 6931778.249405717,
        "Time(s)": 860
    },
    {
        "Altitude(m)": 566855.9693389406,
        "Argument of Periapsis(deg)": 0.030326327717477602,
        "Eccentricity": 0.0,
        "Inclination(deg)": 53.0,
        "Latitude(deg)": -40.79447336355228,
        "Longitude(deg)": -28.350898393923153,
        "Mean Anomaly(deg)": -125.46568529056577,
        "RAAN(deg)": 214.9548670032599,
        "Satellite Name": "Starlink Shell 1 957",
        "Satellite Number": 957,
        "Semi-Major Axis(m)": 6931778.249405717,
        "Time(s)": 870
    },
    {
        "Altitude(m)": 567012.8551255924,
        "Argument of Periapsis(deg)": 0.030674906196988847,
        "Eccentricity": 0.0,
        "Inclination(deg)": 53.0,
        "Latitude(deg)": -41.17430873857431,
        "Longitude(deg)": -27.734996152238192,
        "Mean Anomaly(deg)": -124.83885408700905,
        "RAAN(deg)": 214.95434823318237,
        "Satellite Name": "Starlink Shell 1 957",
        "Satellite Number": 957,
        "Semi-Major Axis(m)": 6931778.249405717,
        "Time(s)": 880
    },
    {
        "Altitude(m)": 567168.1713063983,
        "Argument of Periapsis(deg)": 0.031023484676500086,
        "Eccentricity": 0.0,
        "Inclination(deg)": 53.0,
        "Latitude(deg)": -41.550318327064694,
        "Longitude(deg)": -27.111518279245512,
        "Mean Anomaly(deg)": -124.21202288345236,
        "RAAN(deg)": 214.95382946310494,
        "Satellite Name": "Starlink Shell 1 957",
        "Satellite Number": 957,
        "Semi-Major Axis(m)": 6931778.249405717,
        "Time(s)": 890
    },
    {
        "Altitude(m)": 567321.8571701525,
        "Argument of Periapsis(deg)": 0.03137206315601132,
        "Eccentricity": 0.0,
        "Inclination(deg)": 53.0,
        "Latitude(deg)": -41.92240843447062,
        "Longitude(deg)": -26.48035383877641,
        "Mean Anomaly(deg)": -123.58519167989566,
        "RAAN(deg)": 214.95331069302748,
        "Satellite Name": "Starlink Shell 1 957",
        "Satellite Number": 957,
        "Semi-Major Axis(m)": 6931778.249405717,
        "Time(s)": 900
    },
    {
        "Altitude(m)": 567473.8525856388,
        "Argument of Periapsis(deg)": 0.03172064163552255,
        "Eccentricity": 0.0,
        "Inclination(deg)": 53.0,
        "Latitude(deg)": -42.29048353361456,
        "Longitude(deg)": -25.841394611331125,
        "Mean Anomaly(deg)": -122.95836047633892,
        "RAAN(deg)": 214.95279192294998,
        "Satellite Name": "Starlink Shell 1 957",
        "Satellite Number": 957,
        "Semi-Major Axis(m)": 6931778.249405717,
        "Time(s)": 910
    },
    {
        "Altitude(m)": 567624.0980282213,
        "Argument of Periapsis(deg)": 0.0320692201150338,
        "Eccentricity": 0.0,
        "Inclination(deg)": 53.0,
        "Latitude(deg)": -42.6544462690242,
        "Longitude(deg)": -25.194534902647263,
        "Mean Anomaly(deg)": -122.33152927278218,
        "RAAN(deg)": 214.95227315287252,
        "Satellite Name": "Starlink Shell 1 957",
        "Satellite Number": 957,
        "Semi-Major Axis(m)": 6931778.249405717,
        "Time(s)": 920
    },
    {
        "Altitude(m)": 567772.534606134,
        "Argument of Periapsis(deg)": 0.032417798594545036,
        "Eccentricity": 0.0,
        "Inclination(deg)": 53.0,
        "Latitude(deg)": -43.01419746585946,
        "Longitude(deg)": -24.539671370201756,
        "Mean Anomaly(deg)": -121.70469806922553,
        "RAAN(deg)": 214.95175438279506,
        "Satellite Name": "Starlink Shell 1 957",
        "Satellite Number": 957,
        "Semi-Major Axis(m)": 6931778.249405717,
        "Time(s)": 930
    },
    {
        "Altitude(m)": 567919.1040864952,
        "Argument of Periapsis(deg)": 0.03276637707405627,
        "Eccentricity": 0.0,
        "Inclination(deg)": 53.0,
        "Latitude(deg)": -43.36963614380974,
        "Longitude(deg)": -23.87670438073251,
        "Mean Anomaly(deg)": -121.07786686566878,
        "RAAN(deg)": 214.95123561271757,
        "Satellite Name": "Starlink Shell 1 957",
        "Satellite Number": 957,
        "Semi-Major Axis(m)": 6931778.249405717,
        "Time(s)": 940
    }
]